[{"OBJECT_NAME":"OBJECT A","OBJECT_ID":"2025-013A","EPOCH":"2026-03-09T23:29:31.895232","MEAN_MOTION":15.29260221,"ECCENTRICITY":0.0010321,"INCLINATION":97.6364,"RA_OF_ASC_NODE":244.5149,"ARG_OF_PERICENTER":282.3775,"MEAN_ANOMALY":77.6309,"EPHEMERIS_TYPE":0,"CLASSIFICATION_TYPE":"U","NORAD_CAT_ID":62729,"ELEMENT_SET_NO":999,"REV_AT_EPOCH":6276,"BSTAR":0.0013206527,"MEAN_MOTION_DOT":0.00037616,"MEAN_MOTION_DDOT":0},{"OBJECT_NAME":"STARLINK-35617","OBJECT_ID":"2025-259A","EPOCH":"2026-03-09T21:59:43.846080","MEAN_MOTION":15.27597426,"ECCENTRICITY":0.00014513,"INCLINATION":42.9975,"RA_OF_ASC_NODE":273.2752,"ARG_OF_PERICENTER":358.983,"MEAN_ANOMALY":1.1019,"EPHEMERIS_TYPE":0,"CLASSIFICATION_TYPE":"U","NORAD_CAT_ID":66422,"ELEMENT_SET_NO":999,"REV_AT_EPOCH":1952,"BSTAR":0.0014261737,"MEAN_MOTION_DOT":0.00039213,"MEAN_MOTION_DDOT":0}]
